<gpx xmlns:ns3="http://www.garmin.com/xmlschemas/TrackPointExtension/v1" xmlns="http://www.topografix.com/GPX/1/1" xmlns:xsi="http://www.w3.org/2001/XMLSchema-instance" xmlns:ns2="http://www.garmin.com/xmlschemas/GpxExtensions/v3" creator="Garmin Connect" version="1.1" xsi:schemaLocation="http://www.topografix.com/GPX/1/1 http://www.topografix.com/GPX/11.xsd">
  <extensions>
<distance>5000.0</distance>
<average_hr></average_hr>
<average_speed>3.472222222222222</average_speed>
<start_time></start_time>
<end_time></end_time>
<moving_time></moving_time>
<elapsed_time></elapsed_time>
</extensions>
<metadata>
    <link href="connect.garmin.com">
      <text>Garmin Connect</text>
    </link>
    <time>2025-12-14T03:45:12.581Z</time>
  </metadata>
  <trk>
    <name>Tradmil</name>
    <type>running</type>
    <trkseg/>
  </trk>
</gpx>
