<gpx xmlns:ns3="http://www.garmin.com/xmlschemas/TrackPointExtension/v1" xmlns="http://www.topografix.com/GPX/1/1" xmlns:xsi="http://www.w3.org/2001/XMLSchema-instance" xmlns:ns2="http://www.garmin.com/xmlschemas/GpxExtensions/v3" creator="Garmin Connect" version="1.1" xsi:schemaLocation="http://www.topografix.com/GPX/1/1 http://www.topografix.com/GPX/11.xsd">
  <extensions>
<distance>5011.03</distance>
<average_hr>152.0</average_hr>
<average_speed>3.645999908447266</average_speed>
<start_time>2026-01-12T09:30:22+00:00</start_time>
<end_time>2026-01-12T09:53:16.312000+00:00</end_time>
<moving_time>1372.391</moving_time>
<elapsed_time>1374.312</elapsed_time>
</extensions>
<metadata>
    <link href="connect.garmin.com">
      <text>Garmin Connect</text>
    </link>
    <time>2026-01-12T09:30:22.000Z</time>
  </metadata>
  <trk>
    <name>Treadmill Running</name>
    <type>treadmill_running</type>
    <trkseg/>
  </trk>
</gpx>
